{"type": "FeatureCollection", "features": [{"type": "Feature", "properties": {"norad_id": 36828, "name": "BEIDOU-2 IGSO-1 (C06)", "group": "beidou", "lat": -52.603198442566175, "lon": 54.89494472125034, "alt_km": 35629.42395603719, "timestamp": "2025-12-24T14:43:29.266703+00:00", "meta": {"OBJECT_NAME": "BEIDOU-2 IGSO-1 (C06)", "OBJECT_ID": "2010-036A", "EPOCH": "2025-12-20T21:47:26.739168", "MEAN_MOTION": 1.00282395, "ECCENTRICITY": 0.0051798, "INCLINATION": 54.2882, "RA_OF_ASC_NODE": 164.5739, "ARG_OF_PERICENTER": 215.2932, "MEAN_ANOMALY": 144.6604, "EPHEMERIS_TYPE": 0, "CLASSIFICATION_TYPE": "U", "NORAD_CAT_ID": 36828, "ELEMENT_SET_NO": 999, "REV_AT_EPOCH": 5631, "BSTAR": 0, "MEAN_MOTION_DOT": -5.5e-07, "MEAN_MOTION_DDOT": 0}, "tle": {"line1": "1 36828U 10036A   25354.90794837 -.00000055  00000+0  00000+0 0  9992", "line2": "2 36828  54.2882 164.5739 0051798 215.2932 144.6604  1.00282395 56317"}}, "geometry": {"type": "Point", "coordinates": [54.89494472125034, -52.603198442566175]}}, {"type": "Feature", "properties": {"norad_id": 37210, "name": "BEIDOU-2 G4 (C04)", "group": "beidou", "lat": 2.2670330411925654, "lon": 114.23194794237288, "alt_km": 35823.80780566535, "timestamp": "2025-12-24T14:43:29.266726+00:00", "meta": {"OBJECT_NAME": "BEIDOU-2 G4 (C04)", "OBJECT_ID": "2010-057A", "EPOCH": "2025-12-24T07:55:23.575008", "MEAN_MOTION": 1.00271678, "ECCENTRICITY": 0.0010407, "INCLINATION": 3.2114, "RA_OF_ASC_NODE": 69.8943, "ARG_OF_PERICENTER": 193.8429, "MEAN_ANOMALY": 108.3027, "EPHEMERIS_TYPE": 0, "CLASSIFICATION_TYPE": "U", "NORAD_CAT_ID": 37210, "ELEMENT_SET_NO": 999, "REV_AT_EPOCH": 5553, "BSTAR": 0, "MEAN_MOTION_DOT": -9.2e-07, "MEAN_MOTION_DDOT": 0}, "tle": {"line1": "1 37210U 10057A   25358.33013397 -.00000092  00000+0  00000+0 0  9998", "line2": "2 37210   3.2114  69.8943 0010407 193.8429 108.3027  1.00271678 55534"}}, "geometry": {"type": "Point", "coordinates": [114.23194794237288, 2.2670330411925654]}}, {"type": "Feature", "properties": {"norad_id": 37256, "name": "BEIDOU-2 IGSO-2 (C07)", "group": "beidou", "lat": 23.324465643679588, "lon": 71.07567620392688, "alt_km": 35704.4669591956, "timestamp": "2025-12-24T14:43:29.266741+00:00", "meta": {"OBJECT_NAME": "BEIDOU-2 IGSO-2 (C07)", "OBJECT_ID": "2010-068A", "EPOCH": "2025-12-23T17:03:51.690816", "MEAN_MOTION": 1.00283101, "ECCENTRICITY": 0.00485637, "INCLINATION": 47.8659, "RA_OF_ASC_NODE": 274.0149, "ARG_OF_PERICENTER": 216.3394, "MEAN_ANOMALY": 326.1369, "EPHEMERIS_TYPE": 0, "CLASSIFICATION_TYPE": "U", "NORAD_CAT_ID": 37256, "ELEMENT_SET_NO": 999, "REV_AT_EPOCH": 5503, "BSTAR": 0, "MEAN_MOTION_DOT": -1.88e-06, "MEAN_MOTION_DDOT": 0}, "tle": {"line1": "1 37256U 10068A   25357.71101494 -.00000188  00000+0  00000+0 0  9993", "line2": "2 37256  47.8659 274.0149 0048563 216.3394 326.1369  1.00283101 55034"}}, "geometry": {"type": "Point", "coordinates": [71.07567620392688, 23.324465643679588]}}, {"type": "Feature", "properties": {"norad_id": 37384, "name": "BEIDOU-2 IGSO-3 (C08)", "group": "beidou", "lat": 17.192575283547153, "lon": 51.2432682028698, "alt_km": 35931.40229721867, "timestamp": "2025-12-24T14:43:29.266755+00:00", "meta": {"OBJECT_NAME": "BEIDOU-2 IGSO-3 (C08)", "OBJECT_ID": "2011-013A", "EPOCH": "2025-12-23T13:38:13.451136", "MEAN_MOTION": 1.00268394, "ECCENTRICITY": 0.00353473, "INCLINATION": 62.1571, "RA_OF_ASC_NODE": 41.8137, "ARG_OF_PERICENTER": 187.6149, "MEAN_ANOMALY": 174.7745, "EPHEMERIS_TYPE": 0, "CLASSIFICATION_TYPE": "U", "NORAD_CAT_ID": 37384, "ELEMENT_SET_NO": 999, "REV_AT_EPOCH": 5390, "BSTAR": 0, "MEAN_MOTION_DOT": -1.6e-06, "MEAN_MOTION_DDOT": 0}, "tle": {"line1": "1 37384U 11013A   25357.56821124 -.00000160  00000+0  00000+0 0  9998", "line2": "2 37384  62.1571  41.8137 0035347 187.6149 174.7745  1.00268394 53906"}}, "geometry": {"type": "Point", "coordinates": [51.2432682028698, 17.192575283547153]}}, {"type": "Feature", "properties": {"norad_id": 37763, "name": "BEIDOU-2 IGSO-4 (C09)", "group": "beidou", "lat": -46.062287420840825, "lon": 34.88993107272505, "alt_km": 35174.53276185219, "timestamp": "2025-12-24T14:43:29.266767+00:00", "meta": {"OBJECT_NAME": "BEIDOU-2 IGSO-4 (C09)", "OBJECT_ID": "2011-038A", "EPOCH": "2025-12-21T10:06:26.864064", "MEAN_MOTION": 1.00280083, "ECCENTRICITY": 0.01491557, "INCLINATION": 54.5854, "RA_OF_ASC_NODE": 167.2693, "ARG_OF_PERICENTER": 230.0944, "MEAN_ANOMALY": 299.1265, "EPHEMERIS_TYPE": 0, "CLASSIFICATION_TYPE": "U", "NORAD_CAT_ID": 37763, "ELEMENT_SET_NO": 999, "REV_AT_EPOCH": 5286, "BSTAR": 0, "MEAN_MOTION_DOT": 5.9e-07, "MEAN_MOTION_DDOT": 0}, "tle": {"line1": "1 37763U 11038A   25355.42114426  .00000059  00000+0  00000+0 0  9995", "line2": "2 37763  54.5854 167.2693 0149155 230.0944 299.1265  1.00280083 52867"}}, "geometry": {"type": "Point", "coordinates": [34.88993107272505, -46.062287420840825]}}, {"type": "Feature", "properties": {"norad_id": 37948, "name": "BEIDOU-2 IGSO-5 (C10)", "group": "beidou", "lat": 33.013708874838805, "lon": 57.95877617233606, "alt_km": 35766.07906346287, "timestamp": "2025-12-24T14:43:29.266780+00:00", "meta": {"OBJECT_NAME": "BEIDOU-2 IGSO-5 (C10)", "OBJECT_ID": "2011-073A", "EPOCH": "2025-12-23T15:38:27.014784", "MEAN_MOTION": 1.00288757, "ECCENTRICITY": 0.01097443, "INCLINATION": 47.9999, "RA_OF_ASC_NODE": 273.7252, "ARG_OF_PERICENTER": 222.2004, "MEAN_ANOMALY": 284.7176, "EPHEMERIS_TYPE": 0, "CLASSIFICATION_TYPE": "U", "NORAD_CAT_ID": 37948, "ELEMENT_SET_NO": 999, "REV_AT_EPOCH": 5137, "BSTAR": 0, "MEAN_MOTION_DOT": -1.38e-06, "MEAN_MOTION_DDOT": 0}, "tle": {"line1": "1 37948U 11073A   25357.65170156 -.00000138  00000+0  00000+0 0  9997", "line2": "2 37948  47.9999 273.7252 0109744 222.2004 284.7176  1.00288757 51374"}}, "geometry": {"type": "Point", "coordinates": [57.95877617233606, 33.013708874838805]}}, {"type": "Feature", "properties": {"norad_id": 38091, "name": "BEIDOU-2 G5 (C05)", "group": "beidou", "lat": -2.6484081252240013, "lon": 13.17170136416837, "alt_km": 35768.48786230963, "timestamp": "2025-12-24T14:43:29.266793+00:00", "meta": {"OBJECT_NAME": "BEIDOU-2 G5 (C05)", "OBJECT_ID": "2012-008A", "EPOCH": "2025-12-24T02:18:38.733696", "MEAN_MOTION": 1.00269743, "ECCENTRICITY": 0.00130651, "INCLINATION": 3.1357, "RA_OF_ASC_NODE": 70.6677, "ARG_OF_PERICENTER": 232.1361, "MEAN_ANOMALY": 243.4748, "EPHEMERIS_TYPE": 0, "CLASSIFICATION_TYPE": "U", "NORAD_CAT_ID": 38091, "ELEMENT_SET_NO": 999, "REV_AT_EPOCH": 5061, "BSTAR": 0, "MEAN_MOTION_DOT": 7.7e-07, "MEAN_MOTION_DDOT": 0}, "tle": {"line1": "1 38091U 12008A   25358.09628164  .00000077  00000+0  00000+0 0  9993", "line2": "2 38091   3.1357  70.6677 0013065 232.1361 243.4748  1.00269743 50614"}}, "geometry": {"type": "Point", "coordinates": [13.17170136416837, -2.6484081252240013]}}, {"type": "Feature", "properties": {"norad_id": 38250, "name": "BEIDOU-2 M3 (C11)", "group": "beidou", "lat": -34.262979188645, "lon": -76.70286161857648, "alt_km": 21482.084200688536, "timestamp": "2025-12-24T14:43:29.266805+00:00", "meta": {"OBJECT_NAME": "BEIDOU-2 M3 (C11)", "OBJECT_ID": "2012-018A", "EPOCH": "2025-12-23T14:28:50.284992", "MEAN_MOTION": 1.86230163, "ECCENTRICITY": 0.00241022, "INCLINATION": 55.911, "RA_OF_ASC_NODE": 310.7927, "ARG_OF_PERICENTER": 275.3746, "MEAN_ANOMALY": 84.3517, "EPHEMERIS_TYPE": 0, "CLASSIFICATION_TYPE": "U", "NORAD_CAT_ID": 38250, "ELEMENT_SET_NO": 999, "REV_AT_EPOCH": 9267, "BSTAR": 0, "MEAN_MOTION_DOT": -5.4e-07, "MEAN_MOTION_DDOT": 0}, "tle": {"line1": "1 38250U 12018A   25357.60335978 -.00000054  00000+0  00000+0 0  9991", "line2": "2 38250  55.9110 310.7927 0024102 275.3746  84.3517  1.86230163 92675"}}, "geometry": {"type": "Point", "coordinates": [-76.70286161857648, -34.262979188645]}}, {"type": "Feature", "properties": {"norad_id": 38251, "name": "BEIDOU-2 M4 (C12)", "group": "beidou", "lat": 2.322481797142109, "lon": -48.45360608835443, "alt_km": 21523.152690710434, "timestamp": "2025-12-24T14:43:29.266817+00:00", "meta": {"OBJECT_NAME": "BEIDOU-2 M4 (C12)", "OBJECT_ID": "2012-018B", "EPOCH": "2025-12-24T01:44:14.261856", "MEAN_MOTION": 1.86229893, "ECCENTRICITY": 0.00152512, "INCLINATION": 55.8118, "RA_OF_ASC_NODE": 310.0049, "ARG_OF_PERICENTER": 279.3729, "MEAN_ANOMALY": 80.4579, "EPHEMERIS_TYPE": 0, "CLASSIFICATION_TYPE": "U", "NORAD_CAT_ID": 38251, "ELEMENT_SET_NO": 999, "REV_AT_EPOCH": 9268, "BSTAR": 0, "MEAN_MOTION_DOT": -5.3e-07, "MEAN_MOTION_DDOT": 0}, "tle": {"line1": "1 38251U 12018B   25358.07238729 -.00000053  00000+0  00000+0 0  9999", "line2": "2 38251  55.8118 310.0049 0015251 279.3729  80.4579  1.86229893 92685"}}, "geometry": {"type": "Point", "coordinates": [-48.45360608835443, 2.322481797142109]}}, {"type": "Feature", "properties": {"norad_id": 38775, "name": "BEIDOU-2 M6 (C14)", "group": "beidou", "lat": -13.76968162066946, "lon": -101.93951342250767, "alt_km": 21556.886776299467, "timestamp": "2025-12-24T14:43:29.266828+00:00", "meta": {"OBJECT_NAME": "BEIDOU-2 M6 (C14)", "OBJECT_ID": "2012-050B", "EPOCH": "2025-12-24T07:41:05.368128", "MEAN_MOTION": 1.86230801, "ECCENTRICITY": 0.00114872, "INCLINATION": 56.388, "RA_OF_ASC_NODE": 68.6832, "ARG_OF_PERICENTER": 343.1884, "MEAN_ANOMALY": 16.8281, "EPHEMERIS_TYPE": 0, "CLASSIFICATION_TYPE": "U", "NORAD_CAT_ID": 38775, "ELEMENT_SET_NO": 999, "REV_AT_EPOCH": 9005, "BSTAR": 0, "MEAN_MOTION_DOT": -2.4e-07, "MEAN_MOTION_DDOT": 0}, "tle": {"line1": "1 38775U 12050B   25358.32020102 -.00000024  00000+0  00000+0 0  9996", "line2": "2 38775  56.3880  68.6832 0011487 343.1884  16.8281  1.86230801 90056"}}, "geometry": {"type": "Point", "coordinates": [-101.93951342250767, -13.76968162066946]}}]}